SHENZHOU-22             
1 66645U 25272A   25343.19148786  .00030369  00000+0  38224-3 0  9998
2 66645  41.4680  38.2458 0008971   2.1097 357.9778 15.58940873263003
SOYUZ-MS 28             
1 66664U 25275A   25343.18736383  .00013707  00000+0  25261-3 0  9991
2 66664  51.6308 160.0685 0003366 223.6321 136.4401 15.49438460  1280
1998-067XS              
1 66906U 98067XS  25342.92637765  .00030670  00000+0  53800-3 0  9992
2 66906  51.6297 161.3264 0004021 185.5281 174.5664 15.50272351  1026
1998-067XT              
1 66907U 98067XT  25342.79645480  .00074227  00000+0  12614-2 0  9994
2 66907  51.6302 161.9586 0004971 204.3216 155.7539 15.50762002  1006
1998-067XU              
1 66908U 98067XU  25342.92515024  .00065818  00000+0  11183-2 0  9996
2 66908  51.6297 161.3178 0005167 203.3313 156.7442 15.50818267  1027
SILVERSAT               
1 66909U 98067XV  25342.73171405  .00079284  00000+0  13404-2 0  9997
2 66909  51.6297 162.2763 0005012 204.4469 155.6283 15.50878297   996
1998-067XW              
1 66910U 98067XW  25342.92393845  .00067841  00000+0  11401-2 0  9995
2 66910  51.6296 161.3100 0005927 189.6161 170.4716 15.51110893  1023
1998-067XX              
1 66911U 98067XX  25343.11695638  .00082324  00000+0  13712-2 0  9993
2 66911  51.6296 160.3494 0005706 191.2278 168.8584 15.51276016  1048
1998-067XY              
1 66912U 98067XY  25342.79680776  .00060617  00000+0  10397-2 0  9991
2 66912  51.6301 161.9610 0005040 202.8515 157.2251 15.50590013   998
